{
    "links": {
        "self": "http://www.neowsapp.com/rest/v1/neo/3695745?api_key=iIulBulltgU6a56xZRHN4H3l9WmuAYTsLGpBGhQ2"
    },
    "id": "3695745",
    "neo_reference_id": "3695745",
    "name": "(2014 UR192)",
    "designation": "2014 UR192",
    "nasa_jpl_url": "http://ssd.jpl.nasa.gov/sbdb.cgi?sstr=3695745",
    "absolute_magnitude_h": 20.9,
    "estimated_diameter": {
        "kilometers": {
            "estimated_diameter_min": 0.1756123185,
            "estimated_diameter_max": 0.3926810818
        },
        "meters": {
            "estimated_diameter_min": 175.6123184804,
            "estimated_diameter_max": 392.6810818086
        },
        "miles": {
            "estimated_diameter_min": 0.1091204019,
            "estimated_diameter_max": 0.2440006365
        },
        "feet": {
            "estimated_diameter_min": 576.1559189633,
            "estimated_diameter_max": 1288.3238004408
        }
    },
    "is_potentially_hazardous_asteroid": false,
    "close_approach_data": [
        {
            "close_approach_date": "1908-05-30",
            "close_approach_date_full": "1908-May-30 07:25",
            "epoch_date_close_approach": -1943627700000,
            "relative_velocity": {
                "kilometers_per_second": "22.4672072798",
                "kilometers_per_hour": "80881.9462071522",
                "miles_per_hour": "50256.8959641052"
            },
            "miss_distance": {
                "astronomical": "0.4926461608",
                "lunar": "191.6393565512",
                "kilometers": "73698816.319357496",
                "miles": "45794320.9499696048"
            },
            "orbiting_body": "Earth"
        },
        {
            "close_approach_date": "2008-10-03",
            "close_approach_date_full": "2008-Oct-03 00:10",
            "epoch_date_close_approach": 1222992600000,
            "relative_velocity": {
                "kilometers_per_second": "20.8760868208",
                "kilometers_per_hour": "75153.9125548127",
                "miles_per_hour": "46697.7186094057"
            },
            "miss_distance": {
                "astronomical": "0.4617658411",
                "lunar": "179.6269121879",
                "kilometers": "69079186.267318457",
                "miles": "42923815.9427184266"
            },
            "orbiting_body": "Earth"
        },
        {
            "close_approach_date": "2011-09-09",
            "close_approach_date_full": "2011-Sep-09 15:09",
            "epoch_date_close_approach": 1315580940000,
            "relative_velocity": {
                "kilometers_per_second": "10.8313180657",
                "kilometers_per_hour": "38992.7450364116",
                "miles_per_hour": "24228.575381097"
            },
            "miss_distance": {
                "astronomical": "0.175614422",
                "lunar": "68.314010158",
                "kilometers": "26271543.47248114",
                "miles": "16324380.142234132"
            },
            "orbiting_body": "Earth"
        },
        {
            "close_approach_date": "2014-06-28",
            "close_approach_date_full": "2014-Jun-28 11:19",
            "epoch_date_close_approach": 1403954340000,
            "relative_velocity": {
                "kilometers_per_second": "10.2855326786",
                "kilometers_per_hour": "37027.9176430349",
                "miles_per_hour": "23007.7080488069"
            },
            "miss_distance": {
                "astronomical": "0.0853706129",
                "lunar": "33.2091684181",
                "kilometers": "12771261.850434523",
                "miles": "7935694.1308334974"
            },
            "orbiting_body": "Earth"
        },
        {
            "close_approach_date": "2017-06-04",
            "close_approach_date_full": "2017-Jun-04 14:25",
            "epoch_date_close_approach": 1496586300000,
            "relative_velocity": {
                "kilometers_per_second": "19.917111703",
                "kilometers_per_hour": "71701.6021306214",
                "miles_per_hour": "44552.5871683297"
            },
            "miss_distance": {
                "astronomical": "0.4016476077",
                "lunar": "156.2409193953",
                "kilometers": "60085626.602515599",
                "miles": "37335477.1017253062"
            },
            "orbiting_body": "Earth"
        }
    ],
    "orbital_data": {
        "orbit_id": "7",
        "orbit_determination_date": "2017-04-06 08:37:37",
        "first_observation_date": "2014-10-28",
        "last_observation_date": "2014-11-21",
        "data_arc_in_days": 24,
        "observations_used": 31,
        "orbit_uncertainty": "7",
        "minimum_orbit_intersection": ".0706951",
        "jupiter_tisserand_invariant": "3.607",
        "epoch_osculation": "2459000.5",
        "eccentricity": ".5073221229167805",
        "semi_major_axis": "2.054260120714957",
        "inclination": "7.331450079247452",
        "ascending_node_longitude": "256.9868519122256",
        "orbital_period": "1075.428594697136",
        "perihelion_distance": "1.012088515250563",
        "perihelion_argument": "55.11553536382344",
        "aphelion_distance": "3.096431726179351",
        "perihelion_time": "2459016.670625615046",
        "mean_anomaly": "354.5868788963568",
        "mean_motion": ".3347502584319731",
        "equinox": "J2000",
        "orbit_class": {
            "orbit_class_type": "APO",
            "orbit_class_description": "Near-Earth asteroid orbits which cross the Earth’s orbit similar to that of 1862 Apollo",
            "orbit_class_range": "a (semi-major axis) > 1.0 AU; q (perihelion) < 1.017 AU"
        }
    },
    "is_sentry_object": false
}